NORAD_CAT_ID,OBJECT_NAME,OBJECT_TYPE,EPOCH,MEAN_MOTION,ECCENTRICITY,INCLINATION,RA_OF_ASC_NODE,ARG_OF_PERICENTER,MEAN_ANOMALY,BSTAR,MEAN_MOTION_DOT,MEAN_MOTION_DDOT,TLE_LINE0,TLE_LINE1,TLE_LINE2,SEMIMAJOR_AXIS,PERIOD,APOGEE,PERIGEE,DECAYED
56790.0,STARLINK-6345,PAYLOAD,2023-12-16 23:48:11,15.69911456,0.0003031,70.0003,211.7819,258.5571,101.5285,2.3096e-05,2.564e-05,0.0,0 STARLINK-6345,1 56790U 23078Z   23350.99179847  .00002564  00000-0  23096-4 0  9995,2 56790  70.0003 211.7819 0003031 258.5571 101.5285 15.69911456 31393,6737.287,91.725,361.194,357.11,0.0
56790.0,STARLINK-6345,PAYLOAD,2023-12-17 18:09:12,15.6993589,0.0003662,69.9977,209.6325,267.5141,92.5635,-2.2967e-06,-4.89e-06,0.0,0 STARLINK-6345,1 56790U 23078Z   23351.75638964 -.00000489  00000-0 -22967-5 0  9993,2 56790  69.9977 209.6325 0003662 267.5141  92.5635 15.69935890 31779,6737.217,91.723,361.55,356.615,0.0
56790.0,STARLINK-6345,PAYLOAD,2023-12-18 00:16:12,15.69935291,0.0003481,69.9974,208.915,261.6263,98.4538,-3.6668e-06,-6.54e-06,0.0,0 STARLINK-6345,1 56790U 23078Z   23352.01125513 -.00000654  00000-0 -36668-5 0  9991,2 56790  69.9974 208.9150 0003481 261.6263  98.4538 15.69935291 31551,6737.219,91.724,361.429,356.739,0.0
56790.0,STARLINK-6345,PAYLOAD,2023-12-18 15:33:45,15.69913462,0.0003489,69.9988,207.1232,267.3824,92.6972,-1.1637e-05,-1.611e-05,0.0,0 STARLINK-6345,1 56790U 23078Z   23352.64844052 -.00001611  00000-0 -11637-4 0  9998,2 56790  69.9988 207.1232 0003489 267.3824  92.6972 15.69913462 31916,6737.282,91.725,361.497,356.796,0.0
56790.0,STARLINK-6345,PAYLOAD,2023-12-19 00:44:15,15.69927006,0.0003622,69.9979,206.0464,275.1888,84.8894,4.0056e-06,2.69e-06,0.0,0 STARLINK-6345,1 56790U 23078Z   23353.03073005  .00000269  00000-0  40056-5 0  9998,2 56790  69.9979 206.0464 0003622 275.1888  84.8894 15.69927006 31978,6737.243,91.724,361.548,356.668,0.0
56790.0,STARLINK-6345,PAYLOAD,2023-12-19 23:40:32,15.69922426,0.0003004,69.9978,203.3614,268.5324,91.5527,5.5927e-07,-1.45e-06,0.0,0 STARLINK-6345,1 56790U 23078Z   23353.98648491 -.00000145  00000-0  55927-6 0  9997,2 56790  69.9978 203.3614 0003004 268.5324  91.5527 15.69922426 32126,6737.256,91.724,361.145,357.097,0.0
56790.0,STARLINK-6345,PAYLOAD,2023-12-20 16:29:47,15.69935038,0.0003174,69.9978,201.3894,271.9835,88.0997,1.2649e-05,1.309e-05,0.0,0 STARLINK-6345,1 56790U 23078Z   23354.68735846  .00001309  00000-0  12649-4 0  9990,2 56790  69.9978 201.3894 0003174 271.9835  88.0997 15.69935038 32234,6737.22,91.724,361.223,356.946,0.0
56790.0,STARLINK-6345,PAYLOAD,2023-12-20 22:36:48,15.69927959,0.0004035,69.9983,200.6724,276.4143,83.6593,1.5134e-06,-3.1e-07,0.0,0 STARLINK-6345,1 56790U 23078Z   23354.94223116 -.00000031  00000-0  15134-5 0  9996,2 56790  69.9983 200.6724 0004035 276.4143  83.6593 15.69927959 32015,6737.24,91.724,361.824,356.387,0.0
56790.0,STARLINK-6345,PAYLOAD,2023-12-21 00:08:33,15.699265,0.0003889,69.9986,200.4935,275.5929,84.4824,-1.8027e-07,-2.35e-06,0.0,0 STARLINK-6345,1 56790U 23078Z   23355.00594901 -.00000235  00000-0 -18027-6 0  9999,2 56790  69.9986 200.4935 0003889 275.5929  84.4824 15.69926500 32284,6737.244,91.724,361.729,356.489,0.0
56790.0,STARLINK-6345,PAYLOAD,2023-12-21 15:26:05,15.69914949,0.0003681,69.9988,198.7035,280.2465,79.8316,3.2613e-06,1.79e-06,0.0,0 STARLINK-6345,1 56790U 23078Z   23355.64312414  .00000179  00000-0  32613-5 0  9997,2 56790  69.9988 198.7035 0003681 280.2465  79.8316 15.69914949 32383,6737.277,91.725,361.622,356.662,0.0
56790.0,STARLINK-6345,PAYLOAD,2023-12-21 21:33:05,15.69928328,0.0002894,69.9988,197.9933,244.5074,115.5823,5.2163e-06,4.15e-06,0.0,0 STARLINK-6345,1 56790U 23078Z   23355.89798180  .00000415  00000-0  52163-5 0  9997,2 56790  69.9988 197.9933 0002894 244.5074 115.5823 15.69928328 32168,6737.239,91.724,361.054,357.154,0.0
56790.0,STARLINK-6345,PAYLOAD,2023-12-21 23:04:49,15.69941694,0.0003562,69.9978,197.8071,284.4182,75.6618,2.104e-05,2.32e-05,0.0,0 STARLINK-6345,1 56790U 23078Z   23355.96168678  .00002320  00000-0  21040-4 0  9994,2 56790  69.9978 197.8071 0003562 284.4182  75.6618 15.69941694 32434,6737.201,91.723,361.466,356.666,0.0
56790.0,STARLINK-6345,PAYLOAD,2023-12-22 14:22:22,15.69915271,0.0003325,70.0,196.0155,272.5098,87.5717,1.2252e-06,-6.5e-07,0.0,0 STARLINK-6345,1 56790U 23078Z   23356.59887261 -.00000065  00000-0  12252-5 0  9991,2 56790  70.0000 196.0155 0003325 272.5098  87.5717 15.69915271 32274,6737.276,91.725,361.382,356.901,0.0
56790.0,STARLINK-6345,PAYLOAD,2023-12-22 15:54:07,15.69926504,0.0003498,69.9983,195.8421,267.3027,92.7768,-2.1998e-05,-2.857e-05,0.0,0 STARLINK-6345,1 56790U 23078Z   23356.66258906 -.00002857  00000-0 -21998-4 0  9995,2 56790  69.9983 195.8421 0003498 267.3027  92.7768 15.69926504 32544,6737.244,91.724,361.466,356.753,0.0
56790.0,STARLINK-6345,PAYLOAD,2023-12-22 22:01:08,15.69927845,0.0003329,69.9984,195.1263,265.8609,94.2206,-1.9444e-05,-2.55e-05,0.0,0 STARLINK-6345,1 56790U 23078Z   23356.91745419 -.00002550  00000-0 -19444-4 0  9996,2 56790  69.9984 195.1263 0003329 265.8609  94.2206 15.69927845 32323,6737.24,91.724,361.348,356.863,0.0
56790.0,STARLINK-6345,PAYLOAD,2023-12-23 14:50:23,15.69936834,0.0002731,69.9987,193.1533,254.9499,105.1394,2.8858e-05,3.26e-05,0.0,0 STARLINK-6345,1 56790U 23078Z   23357.61832372  .00003260  00000-0  28858-4 0  9995,2 56790  69.9987 193.1533 0002731 254.9499 105.1394 15.69936834 32436,6737.215,91.723,360.92,357.24,0.0
56790.0,STARLINK-6345,PAYLOAD,2023-12-23 16:22:08,15.69931687,0.0002457,69.9985,192.9719,242.923,117.1715,2.3999e-05,2.675e-05,0.0,0 STARLINK-6345,1 56790U 23078Z   23357.68204353  .00002675  00000-0  23999-4 0  9994,2 56790  69.9985 192.9719 0002457 242.9230 117.1715 15.69931687 32703,6737.229,91.724,360.75,357.439,0.0
56790.0,STARLINK-6345,PAYLOAD,2023-12-23 22:29:09,15.69927725,0.0003244,69.9984,192.2588,267.0554,93.027,1.5846e-05,1.693e-05,0.0,0 STARLINK-6345,1 56790U 23078Z   23357.93691517  .00001693  00000-0  15846-4 0  9995,2 56790  69.9984 192.2588 0003244 267.0554  93.0270 15.69927725 32482,6737.241,91.724,361.291,356.92,0.0
56790.0,STARLINK-6345,PAYLOAD,2023-12-24 13:46:41,15.6991263,0.0002667,69.9977,190.4661,246.3396,113.752,7.7134e-06,7.15e-06,0.0,0 STARLINK-6345,1 56790U 23078Z   23358.57409407  .00000715  00000-0  77134-5 0  9994,2 56790  69.9977 190.4661 0002667 246.3396 113.7520 15.69912630 32586,6737.284,91.725,360.946,357.352,0.0
56790.0,STARLINK-6345,PAYLOAD,2023-12-24 15:18:26,15.69912925,0.0003194,69.9975,190.2856,256.3332,103.7508,5.6307e-06,4.64e-06,0.0,0 STARLINK-6345,1 56790U 23078Z   23358.63781092  .00000464  00000-0  56307-5 0  9994,2 56790  69.9975 190.2856 0003194 256.3332 103.7508 15.69912925 32857,6737.283,91.725,361.3,356.996,0.0
56790.0,STARLINK-6345,PAYLOAD,2023-12-24 21:25:26,15.6991681,0.0002643,69.9983,189.5682,255.2086,104.8817,2.1995e-05,2.432e-05,0.0,0 STARLINK-6345,1 56790U 23078Z   23358.89267319  .00002432  00000-0  21995-4 0  9994,2 56790  69.9983 189.5682 0002643 255.2086 104.8817 15.69916810 32634,6737.272,91.725,360.918,357.356,0.0
56790.0,STARLINK-6345,PAYLOAD,2023-12-24 22:57:11,15.69929288,0.0003407,69.996,189.3899,262.9889,97.0919,1.7881e-05,1.938e-05,0.0,0 STARLINK-6345,1 56790U 23078Z   23358.95638212  .00001938  00000-0  17881-4 0  9994,2 56790  69.9960 189.3899 0003407 262.9889  97.0919 15.69929288 32901,6737.236,91.724,361.397,356.806,0.0
56790.0,STARLINK-6345,PAYLOAD,2023-12-25 14:14:42,15.69935998,0.0003066,69.9971,187.5977,258.5237,101.5615,-9.916e-06,-1.405e-05,0.0,0 STARLINK-6345,1 56790U 23078Z   23359.59355192 -.00001405  00000-0 -99160-5 0  9990,2 56790  69.9971 187.5977 0003066 258.5237 101.5615 15.69935998 32740,6737.217,91.723,361.148,357.016,0.0
56790.0,STARLINK-6345,PAYLOAD,2023-12-25 20:21:43,15.69929473,0.0003877,69.9977,186.8839,258.1934,101.8827,-1.7315e-05,-2.295e-05,0.0,0 STARLINK-6345,1 56790U 23078Z   23359.84842212 -.00002295  00000-0 -17315-4 0  9991,2 56790  69.9977 186.8839 0003877 258.1934 101.8827 15.69929473 33048,6737.236,91.724,361.713,356.489,0.0
56790.0,STARLINK-6345,PAYLOAD,2023-12-25 21:53:28,15.69927702,0.0003982,69.9974,186.7051,252.4597,107.6164,-1.7058e-05,-2.264e-05,0.0,0 STARLINK-6345,1 56790U 23078Z   23359.91213884 -.00002264  00000-0 -17058-4 0  9996,2 56790  69.9974 186.7051 0003982 252.4597 107.6164 15.69927702 32791,6737.241,91.724,361.789,356.423,0.0
56790.0,STARLINK-6345,PAYLOAD,2023-12-25 23:25:13,15.6993628,0.0003965,69.9978,186.5259,247.0359,113.0418,-2.8043e-05,-3.586e-05,0.0,0 STARLINK-6345,1 56790U 23078Z   23359.97585200 -.00003586  00000-0 -28043-4 0  9990,2 56790  69.9978 186.5259 0003965 247.0359 113.0418 15.69936280 33065,6737.216,91.723,361.753,356.41,0.0
56790.0,STARLINK-6345,PAYLOAD,2023-12-26 14:42:46,15.69916097,0.0004067,69.998,184.7361,277.2827,82.7906,-1.5024e-05,-2.019e-05,0.0,0 STARLINK-6345,1 56790U 23078Z   23360.61303442 -.00002019  00000-0 -15024-4 0  9994,2 56790  69.9980 184.7361 0004067 277.2827  82.7906 15.69916097 32901,6737.274,91.725,361.879,356.399,0.0
56790.0,STARLINK-6345,PAYLOAD,2023-12-26 22:21:31,15.69916953,0.0003508,69.9992,183.8426,256.4147,103.6658,-7.5431e-06,-1.119e-05,0.0,0 STARLINK-6345,1 56790U 23078Z   23360.93161480 -.00001119  00000-0 -75431-5 0  9992,2 56790  69.9992 183.8426 0003508 256.4147 103.6658 15.69916953 32952,6737.272,91.725,361.5,356.773,0.0
56790.0,STARLINK-6345,PAYLOAD,2023-12-27 12:07:17,15.69914913,0.0003821,69.9994,182.2261,266.2309,93.8449,1.487e-05,1.575e-05,0.0,0 STARLINK-6345,1 56790U 23078Z   23361.50506084  .00001575  00000-0  14870-4 0  9992,2 56790  69.9994 182.2261 0003821 266.2309  93.8449 15.69914913 33303,6737.277,91.725,361.717,356.568,0.0
56790.0,STARLINK-6345,PAYLOAD,2023-12-27 13:39:02,15.69915859,0.0003644,69.9996,182.0475,266.1722,93.9057,1.9167e-05,2.092e-05,0.0,0 STARLINK-6345,1 56790U 23078Z   23361.56877605  .00002092  00000-0  19167-4 0  9997,2 56790  69.9996 182.0475 0003644 266.1722  93.9057 15.69915859 33059,6737.275,91.725,361.595,356.685,0.0
